[{"OBJECT_NAME":"STARLINK-5187","OBJECT_ID":"2022-136Q","EPOCH":"2026-03-09T22:31:43.211712","MEAN_MOTION":15.08836526,"ECCENTRICITY":0.00011237,"INCLINATION":53.2194,"RA_OF_ASC_NODE":342.8557,"ARG_OF_PERICENTER":78.28,"MEAN_ANOMALY":281.8318,"EPHEMERIS_TYPE":0,"CLASSIFICATION_TYPE":"U","NORAD_CAT_ID":54065,"ELEMENT_SET_NO":999,"REV_AT_EPOCH":18688,"BSTAR":7.78517e-6,"MEAN_MOTION_DOT":-1.64e-6,"MEAN_MOTION_DDOT":0},{"OBJECT_NAME":"ICEYE-X67","OBJECT_ID":"2025-248K","EPOCH":"2026-03-09T22:00:01.999584","MEAN_MOTION":15.09405994,"ECCENTRICITY":0.00063951,"INCLINATION":45.4045,"RA_OF_ASC_NODE":295.7576,"ARG_OF_PERICENTER":209.4534,"MEAN_ANOMALY":51.9892,"EPHEMERIS_TYPE":0,"CLASSIFICATION_TYPE":"U","NORAD_CAT_ID":66302,"ELEMENT_SET_NO":999,"REV_AT_EPOCH":578,"BSTAR":-0.000164009,"MEAN_MOTION_DOT":-2.917e-5,"MEAN_MOTION_DDOT":0}]
